{
    "links": {
        "self": "http://www.neowsapp.com/rest/v1/neo/3177229?api_key=iIulBulltgU6a56xZRHN4H3l9WmuAYTsLGpBGhQ2"
    },
    "id": "3177229",
    "neo_reference_id": "3177229",
    "name": "(2004 FB18)",
    "designation": "2004 FB18",
    "nasa_jpl_url": "http://ssd.jpl.nasa.gov/sbdb.cgi?sstr=3177229",
    "absolute_magnitude_h": 24.0,
    "estimated_diameter": {
        "kilometers": {
            "estimated_diameter_min": 0.0421264611,
            "estimated_diameter_max": 0.0941976306
        },
        "meters": {
            "estimated_diameter_min": 42.1264610556,
            "estimated_diameter_max": 94.1976305719
        },
        "miles": {
            "estimated_diameter_min": 0.0261761612,
            "estimated_diameter_max": 0.0585316759
        },
        "feet": {
            "estimated_diameter_min": 138.2101784897,
            "estimated_diameter_max": 309.0473542854
        }
    },
    "is_potentially_hazardous_asteroid": false,
    "close_approach_data": [
        {
            "close_approach_date": "1918-05-29",
            "close_approach_date_full": "1918-May-29 18:12",
            "epoch_date_close_approach": -1628142480000,
            "relative_velocity": {
                "kilometers_per_second": "12.7778864727",
                "kilometers_per_hour": "46000.3913018982",
                "miles_per_hour": "28582.8542508934"
            },
            "miss_distance": {
                "astronomical": "0.3133638461",
                "lunar": "121.8985361329",
                "kilometers": "46878563.911567807",
                "miles": "29128988.8854854566"
            },
            "orbiting_body": "Earth"
        },
        {
            "close_approach_date": "2004-04-05",
            "close_approach_date_full": "2004-Apr-05 23:33",
            "epoch_date_close_approach": 1081207980000,
            "relative_velocity": {
                "kilometers_per_second": "5.9567251866",
                "kilometers_per_hour": "21444.2106717861",
                "miles_per_hour": "13324.5985699218"
            },
            "miss_distance": {
                "astronomical": "0.0658280804",
                "lunar": "25.6071232756",
                "kilometers": "9847740.614028748",
                "miles": "6119102.2710148024"
            },
            "orbiting_body": "Earth"
        },
        {
            "close_approach_date": "2092-05-28",
            "close_approach_date_full": "2092-May-28 16:20",
            "epoch_date_close_approach": 3862830000000,
            "relative_velocity": {
                "kilometers_per_second": "11.6336495523",
                "kilometers_per_hour": "41881.1383882375",
                "miles_per_hour": "26023.3106835135"
            },
            "miss_distance": {
                "astronomical": "0.2771678974",
                "lunar": "107.8183120886",
                "kilometers": "41463727.083418538",
                "miles": "25764365.3001423044"
            },
            "orbiting_body": "Earth"
        },
        {
            "close_approach_date": "2150-06-02",
            "close_approach_date_full": "2150-Jun-02 07:18",
            "epoch_date_close_approach": 5693440680000,
            "relative_velocity": {
                "kilometers_per_second": "12.5163470515",
                "kilometers_per_hour": "45058.8493852448",
                "miles_per_hour": "27997.8167194039"
            },
            "miss_distance": {
                "astronomical": "0.3045978689",
                "lunar": "118.4885710021",
                "kilometers": "45567192.393979243",
                "miles": "28314140.4094818334"
            },
            "orbiting_body": "Earth"
        },
        {
            "close_approach_date": "2163-03-14",
            "close_approach_date_full": "2163-Mar-14 22:26",
            "epoch_date_close_approach": 6096810360000,
            "relative_velocity": {
                "kilometers_per_second": "14.5532105475",
                "kilometers_per_hour": "52391.5579709507",
                "miles_per_hour": "32554.0766736721"
            },
            "miss_distance": {
                "astronomical": "0.3488216138",
                "lunar": "135.6916077682",
                "kilometers": "52182970.434442606",
                "miles": "32424994.2609997228"
            },
            "orbiting_body": "Earth"
        }
    ],
    "orbital_data": {
        "orbit_id": "17",
        "orbit_determination_date": "2017-04-06 09:13:00",
        "first_observation_date": "2004-03-28",
        "last_observation_date": "2004-05-24",
        "data_arc_in_days": 57,
        "observations_used": 71,
        "orbit_uncertainty": "7",
        "minimum_orbit_intersection": ".0591709",
        "jupiter_tisserand_invariant": "4.172",
        "epoch_osculation": "2459000.5",
        "eccentricity": ".3680152412298449",
        "semi_major_axis": "1.664711039193248",
        "inclination": "5.732735191071769",
        "ascending_node_longitude": "185.7002225244508",
        "orbital_period": "784.5248709056129",
        "perihelion_distance": "1.052072004526559",
        "perihelion_argument": "23.41915966798416",
        "aphelion_distance": "2.277350073859938",
        "perihelion_time": "2459383.674923659029",
        "mean_anomaly": "184.1700452937627",
        "mean_motion": ".4588764656809867",
        "equinox": "J2000",
        "orbit_class": {
            "orbit_class_type": "AMO",
            "orbit_class_description": "Near-Earth asteroid orbits similar to that of 1221 Amor",
            "orbit_class_range": "1.017 AU < q (perihelion) < 1.3 AU"
        }
    },
    "is_sentry_object": false
}